{"type": "FeatureCollection", "features": [ {"type": "Feature", "properties": {"norad_id": 34529, "name": "IRIDIUM 33 DEB", "group": "iridium-33-debris", "lat": 80.58504281602131, "lon": -163.06576679231773, "alt_km": 750.2047778065262, "timestamp": "2025-12-03T04:52:30.023061+00:00", "meta": {"OBJECT_NAME": "IRIDIUM 33 DEB", "OBJECT_ID": "1997-051HW", "EPOCH": "2025-12-02T10:04:51.751488", "MEAN_MOTION": 14.40602399, "ECCENTRICITY": 0.00035817, "INCLINATION": 86.365, "RA_OF_ASC_NODE": 39.8104, "ARG_OF_PERICENTER": 214.776, "MEAN_ANOMALY": 145.3205, "EPHEMERIS_TYPE": 0, "CLASSIFICATION_TYPE": "U", "NORAD_CAT_ID": 34529, "ELEMENT_SET_NO": 999, "REV_AT_EPOCH": 87993, "BSTAR": 0.00017051095, "MEAN_MOTION_DOT": 5.63e-06, "MEAN_MOTION_DDOT": 0}, "tle": {"line1": "1 34529U 97051HW  25336.42004342  .00000563  00000+0  17051-3 0  9993", "line2": "2 34529  86.3650  39.8104 0003581 214.7760 145.3205 14.40602399879936"}}, "geometry": {"type": "Point", "coordinates": [-163.06576679231773, 80.58504281602131]}}, {"type": "Feature", "properties": {"norad_id": 34538, "name": "IRIDIUM 33 DEB", "group": "iridium-33-debris", "lat": -47.076913342776834, "lon": -166.25365773159692, "alt_km": 773.4451124582265, "timestamp": "2025-12-03T04:52:30.023072+00:00", "meta": {"OBJECT_NAME": "IRIDIUM 33 DEB", "OBJECT_ID": "1997-051JF", "EPOCH": "2025-12-02T19:44:57.372000", "MEAN_MOTION": 14.4255264, "ECCENTRICITY": 0.0034059, "INCLINATION": 86.2782, "RA_OF_ASC_NODE": 9.8993, "ARG_OF_PERICENTER": 1.2911, "MEAN_ANOMALY": 52.7157, "EPHEMERIS_TYPE": 0, "CLASSIFICATION_TYPE": "U", "NORAD_CAT_ID": 34538, "ELEMENT_SET_NO": 999, "REV_AT_EPOCH": 87613, "BSTAR": 0.0011771, "MEAN_MOTION_DOT": 3.95e-05, "MEAN_MOTION_DDOT": 0}, "tle": {"line1": "1 34538U 97051JF  25336.82288625  .00003950  00000+0  11771-2 0  9990", "line2": "2 34538  86.2782   9.8993 0034059   1.2911  52.7157 14.42552640876136"}}, "geometry": {"type": "Point", "coordinates": [-166.25365773159692, -47.076913342776834]}}, {"type": "Feature", "properties": {"norad_id": 34540, "name": "IRIDIUM 33 DEB", "group": "iridium-33-debris", "lat": -69.38033101672022, "lon": 141.84447667304187, "alt_km": 646.68402553347, "timestamp": "2025-12-03T04:52:30.023101+00:00", "meta": {"OBJECT_NAME": "IRIDIUM 33 DEB", "OBJECT_ID": "1997-051JH", "EPOCH": "2025-12-02T10:24:08.671680", "MEAN_MOTION": 14.74958051, "ECCENTRICITY": 0.00146832, "INCLINATION": 86.3092, "RA_OF_ASC_NODE": 312.3182, "ARG_OF_PERICENTER": 197.1852, "MEAN_ANOMALY": 288.0339, "EPHEMERIS_TYPE": 0, "CLASSIFICATION_TYPE": "U", "NORAD_CAT_ID": 34540, "ELEMENT_SET_NO": 999, "REV_AT_EPOCH": 88869, "BSTAR": 0.0020015348, "MEAN_MOTION_DOT": 0.00013506, "MEAN_MOTION_DDOT": 0}, "tle": {"line1": "1 34540U 97051JH  25336.43343370  .00013506  00000+0  20015-2 0  9998", "line2": "2 34540  86.3092 312.3182 0014683 197.1852 288.0339 14.74958051888697"}}, "geometry": {"type": "Point", "coordinates": [141.84447667304187, -69.38033101672022]}}, {"type": "Feature", "properties": {"norad_id": 34648, "name": "IRIDIUM 33 DEB", "group": "iridium-33-debris", "lat": 68.81694996138636, "lon": -64.83080326086748, "alt_km": 872.8790211706382, "timestamp": "2025-12-03T04:52:30.023112+00:00", "meta": {"OBJECT_NAME": "IRIDIUM 33 DEB", "OBJECT_ID": "1997-051JZ", "EPOCH": "2025-12-01T03:11:38.418720", "MEAN_MOTION": 14.1087899, "ECCENTRICITY": 0.01868529, "INCLINATION": 86.3903, "RA_OF_ASC_NODE": 286.6295, "ARG_OF_PERICENTER": 334.6513, "MEAN_ANOMALY": 24.5588, "EPHEMERIS_TYPE": 0, "CLASSIFICATION_TYPE": "U", "NORAD_CAT_ID": 34648, "ELEMENT_SET_NO": 999, "REV_AT_EPOCH": 84797, "BSTAR": 0.0079356223, "MEAN_MOTION_DOT": 0.00016788, "MEAN_MOTION_DDOT": 0}, "tle": {"line1": "1 34648U 97051JZ  25335.13308355  .00016788  00000+0  79356-2 0  9994", "line2": "2 34648  86.3903 286.6295 0186852 334.6513  24.5588 14.10878990847973"}}, "geometry": {"type": "Point", "coordinates": [-64.83080326086748, 68.81694996138636]}}, {"type": "Feature", "properties": {"norad_id": 34651, "name": "IRIDIUM 33 DEB", "group": "iridium-33-debris", "lat": -8.77122252070661, "lon": 144.0568405015968, "alt_km": 855.9568660536761, "timestamp": "2025-12-03T04:52:30.023124+00:00", "meta": {"OBJECT_NAME": "IRIDIUM 33 DEB", "OBJECT_ID": "1997-051KC", "EPOCH": "2025-12-02T05:19:54.206688", "MEAN_MOTION": 14.25531146, "ECCENTRICITY": 0.0141862, "INCLINATION": 86.2826, "RA_OF_ASC_NODE": 145.0488, "ARG_OF_PERICENTER": 237.4272, "MEAN_ANOMALY": 121.3155, "EPHEMERIS_TYPE": 0, "CLASSIFICATION_TYPE": "U", "NORAD_CAT_ID": 34651, "ELEMENT_SET_NO": 999, "REV_AT_EPOCH": 85746, "BSTAR": 0.0036308, "MEAN_MOTION_DOT": 9.56e-05, "MEAN_MOTION_DDOT": 0}, "tle": {"line1": "1 34651U 97051KC  25336.22215517  .00009560  00000+0  36308-2 0  9996", "line2": "2 34651  86.2826 145.0488 0141862 237.4272 121.3155 14.25531146857462"}}, "geometry": {"type": "Point", "coordinates": [144.0568405015968, -8.77122252070661]}}, {"type": "Feature", "properties": {"norad_id": 34652, "name": "IRIDIUM 33 DEB", "group": "iridium-33-debris", "lat": -56.284933884090535, "lon": 169.7660943516926, "alt_km": 696.17615523523, "timestamp": "2025-12-03T04:52:30.023134+00:00", "meta": {"OBJECT_NAME": "IRIDIUM 33 DEB", "OBJECT_ID": "1997-051KD", "EPOCH": "2025-12-02T12:03:44.445600", "MEAN_MOTION": 14.61898676, "ECCENTRICITY": 0.00270627, "INCLINATION": 86.3312, "RA_OF_ASC_NODE": 344.5601, "ARG_OF_PERICENTER": 334.9096, "MEAN_ANOMALY": 177.4047, "EPHEMERIS_TYPE": 0, "CLASSIFICATION_TYPE": "U", "NORAD_CAT_ID": 34652, "ELEMENT_SET_NO": 999, "REV_AT_EPOCH": 88334, "BSTAR": 0.0012168376, "MEAN_MOTION_DOT": 6.139e-05, "MEAN_MOTION_DDOT": 0}, "tle": {"line1": "1 34652U 97051KD  25336.50259775  .00006139  00000+0  12168-2 0  9999", "line2": "2 34652  86.3312 344.5601 0027062 334.9096 177.4047 14.61898676883341"}}, "geometry": {"type": "Point", "coordinates": [169.7660943516926, -56.284933884090535]}}, {"type": "Feature", "properties": {"norad_id": 34690, "name": "IRIDIUM 33 DEB", "group": "iridium-33-debris", "lat": -23.44442138599219, "lon": 39.562371171099805, "alt_km": 713.4537679677105, "timestamp": "2025-12-03T04:52:30.023145+00:00", "meta": {"OBJECT_NAME": "IRIDIUM 33 DEB", "OBJECT_ID": "1997-051KM", "EPOCH": "2025-12-02T11:05:34.177632", "MEAN_MOTION": 14.5503094, "ECCENTRICITY": 0.00118516, "INCLINATION": 86.3794, "RA_OF_ASC_NODE": 41.4576, "ARG_OF_PERICENTER": 59.8454, "MEAN_ANOMALY": 358.3612, "EPHEMERIS_TYPE": 0, "CLASSIFICATION_TYPE": "U", "NORAD_CAT_ID": 34690, "ELEMENT_SET_NO": 999, "REV_AT_EPOCH": 87945, "BSTAR": 0.00062693819, "MEAN_MOTION_DOT": 2.723e-05, "MEAN_MOTION_DDOT": 0}, "tle": {"line1": "1 34690U 97051KM  25336.46220113  .00002723  00000+0  62694-3 0  9995", "line2": "2 34690  86.3794  41.4576 0011851  59.8454 358.3612 14.55030940879451"}}, "geometry": {"type": "Point", "coordinates": [39.562371171099805, -23.44442138599219]}}, {"type": "Feature", "properties": {"norad_id": 34693, "name": "IRIDIUM 33 DEB", "group": "iridium-33-debris", "lat": 74.71137501827836, "lon": 114.87584565033316, "alt_km": 476.6137005979317, "timestamp": "2025-12-03T04:52:30.023175+00:00", "meta": {"OBJECT_NAME": "IRIDIUM 33 DEB", "OBJECT_ID": "1997-051KQ", "EPOCH": "2025-12-02T05:02:44.335968", "MEAN_MOTION": 15.24289177, "ECCENTRICITY": 0.0016139, "INCLINATION": 86.305, "RA_OF_ASC_NODE": 309.0413, "ARG_OF_PERICENTER": 69.1334, "MEAN_ANOMALY": 350.4377, "EPHEMERIS_TYPE": 0, "CLASSIFICATION_TYPE": "U", "NORAD_CAT_ID": 34693, "ELEMENT_SET_NO": 999, "REV_AT_EPOCH": 88754, "BSTAR": 0.0049862, "MEAN_MOTION_DOT": 0.00124045, "MEAN_MOTION_DDOT": 0}, "tle": {"line1": "1 34693U 97051KQ  25336.21023537  .00124045  00000+0  49862-2 0  9995", "line2": "2 34693  86.3050 309.0413 0016139  69.1334 350.4377 15.24289177887542"}}, "geometry": {"type": "Point", "coordinates": [114.87584565033316, 74.71137501827836]}}, {"type": "Feature", "properties": {"norad_id": 34696, "name": "IRIDIUM 33 DEB", "group": "iridium-33-debris", "lat": 35.24199994320076, "lon": -150.74544664525064, "alt_km": 646.9214802753704, "timestamp": "2025-12-03T04:52:30.023186+00:00", "meta": {"OBJECT_NAME": "IRIDIUM 33 DEB", "OBJECT_ID": "1997-051KT", "EPOCH": "2025-12-02T10:15:31.222080", "MEAN_MOTION": 14.64140444, "ECCENTRICITY": 0.00749638, "INCLINATION": 86.1859, "RA_OF_ASC_NODE": 32.3162, "ARG_OF_PERICENTER": 202.3954, "MEAN_ANOMALY": 176.9132, "EPHEMERIS_TYPE": 0, "CLASSIFICATION_TYPE": "U", "NORAD_CAT_ID": 34696, "ELEMENT_SET_NO": 999, "REV_AT_EPOCH": 86522, "BSTAR": 0.0067331829, "MEAN_MOTION_DOT": 0.00037042, "MEAN_MOTION_DDOT": 0}, "tle": {"line1": "1 34696U 97051KT  25336.42744470  .00037042  00000+0  67332-2 0  9999", "line2": "2 34696  86.1859  32.3162 0074963 202.3954 176.9132 14.64140444865222"}}, "geometry": {"type": "Point", "coordinates": [-150.74544664525064, 35.24199994320076]}}, {"type": "Feature", "properties": {"norad_id": 34765, "name": "IRIDIUM 33 DEB", "group": "iridium-33-debris", "lat": 33.298123589356486, "lon": -145.5561775498934, "alt_km": 756.8398846054724, "timestamp": "2025-12-03T04:52:30.023197+00:00", "meta": {"OBJECT_NAME": "IRIDIUM 33 DEB", "OBJECT_ID": "1997-051LJ", "EPOCH": "2025-12-02T05:08:41.186976", "MEAN_MOTION": 14.40418764, "ECCENTRICITY": 0.00145508, "INCLINATION": 86.3401, "RA_OF_ASC_NODE": 37.2773, "ARG_OF_PERICENTER": 249.3549, "MEAN_ANOMALY": 173.3707, "EPHEMERIS_TYPE": 0, "CLASSIFICATION_TYPE": "U", "NORAD_CAT_ID": 34765, "ELEMENT_SET_NO": 999, "REV_AT_EPOCH": 87462, "BSTAR": 0.00049787542, "MEAN_MOTION_DOT": 1.602e-05, "MEAN_MOTION_DDOT": 0}, "tle": {"line1": "1 34765U 97051LJ  25336.21436559  .00001602  00000+0  49788-3 0  9998", "line2": "2 34765  86.3401  37.2773 0014550 249.3549 173.3707 14.40418764874623"}}, "geometry": {"type": "Point", "coordinates": [-145.5561775498934, 33.298123589356486]}}]}